[{"OBJECT_NAME":"STARLINK-5686","OBJECT_ID":"2023-015B","EPOCH":"2025-11-18T23:19:56.480736","MEAN_MOTION":15.02542829,"ECCENTRICITY":0.00013884,"INCLINATION":43.0044,"RA_OF_ASC_NODE":208.0804,"ARG_OF_PERICENTER":270.2556,"MEAN_ANOMALY":89.8127,"EPHEMERIS_TYPE":0,"CLASSIFICATION_TYPE":"U","NORAD_CAT_ID":55450,"ELEMENT_SET_NO":999,"REV_AT_EPOCH":15503,"BSTAR":-0.00011375665,"MEAN_MOTION_DOT":-1.74e-5,"MEAN_MOTION_DDOT":0},{"OBJECT_NAME":"STARLINK-5656","OBJECT_ID":"2023-015C","EPOCH":"2025-11-18T23:10:20.068320","MEAN_MOTION":15.02515091,"ECCENTRICITY":0.00010144,"INCLINATION":43.0023,"RA_OF_ASC_NODE":208.0308,"ARG_OF_PERICENTER":257.937,"MEAN_ANOMALY":102.1359,"EPHEMERIS_TYPE":0,"CLASSIFICATION_TYPE":"U","NORAD_CAT_ID":55451,"ELEMENT_SET_NO":999,"REV_AT_EPOCH":15409,"BSTAR":-0.00042638459,"MEAN_MOTION_DOT":-5.955e-5,"MEAN_MOTION_DDOT":0},{"OBJECT_NAME":"STARLINK-5683","OBJECT_ID":"2023-015D","EPOCH":"2025-11-18T23:03:57.396672","MEAN_MOTION":15.02519479,"ECCENTRICITY":0.0001288,"INCLINATION":43.0038,"RA_OF_ASC_NODE":207.9948,"ARG_OF_PERICENTER":244.3172,"MEAN_ANOMALY":115.7538,"EPHEMERIS_TYPE":0,"CLASSIFICATION_TYPE":"U","NORAD_CAT_ID":55452,"ELEMENT_SET_NO":999,"REV_AT_EPOCH":15409,"BSTAR":0.00030086728,"MEAN_MOTION_DOT":3.861e-5,"MEAN_MOTION_DDOT":0},{"OBJECT_NAME":"STARLINK-5684","OBJECT_ID":"2023-015E","EPOCH":"2025-11-18T16:36:13.838112","MEAN_MOTION":15.02567298,"ECCENTRICITY":0.00022632,"INCLINATION":43.0032,"RA_OF_ASC_NODE":209.4157,"ARG_OF_PERICENTER":295.4116,"MEAN_ANOMALY":64.6492,"EPHEMERIS_TYPE":0,"CLASSIFICATION_TYPE":"U","NORAD_CAT_ID":55453,"ELEMENT_SET_NO":999,"REV_AT_EPOCH":15405,"BSTAR":-0.00060033235,"MEAN_MOTION_DOT":-8.311e-5,"MEAN_MOTION_DDOT":0},{"OBJECT_NAME":"STARLINK-5636","OBJECT_ID":"2023-015F","EPOCH":"2025-11-18T22:49:34.174272","MEAN_MOTION":15.02533629,"ECCENTRICITY":0.00014274,"INCLINATION":43.0048,"RA_OF_ASC_NODE":207.9108,"ARG_OF_PERICENTER":260.8885,"MEAN_ANOMALY":99.1796,"EPHEMERIS_TYPE":0,"CLASSIFICATION_TYPE":"U","NORAD_CAT_ID":55454,"ELEMENT_SET_NO":999,"REV_AT_EPOCH":15409,"BSTAR":3.515e-9,"MEAN_MOTION_DOT":-2.04e-6,"MEAN_MOTION_DDOT":0},{"OBJECT_NAME":"STARLINK-5680","OBJECT_ID":"2023-015G","EPOCH":"2025-11-18T23:08:41.450496","MEAN_MOTION":15.02627916,"ECCENTRICITY":0.00013459,"INCLINATION":43.0032,"RA_OF_ASC_NODE":208.0194,"ARG_OF_PERICENTER":310.8188,"MEAN_ANOMALY":49.2538,"EPHEMERIS_TYPE":0,"CLASSIFICATION_TYPE":"U","NORAD_CAT_ID":55455,"ELEMENT_SET_NO":999,"REV_AT_EPOCH":15409,"BSTAR":-0.0015448928,"MEAN_MOTION_DOT":-0.00021061,"MEAN_MOTION_DDOT":0},{"OBJECT_NAME":"STARLINK-5058","OBJECT_ID":"2023-015H","EPOCH":"2025-11-18T22:51:10.044576","MEAN_MOTION":15.02532361,"ECCENTRICITY":0.00010921,"INCLINATION":43.0055,"RA_OF_ASC_NODE":207.9286,"ARG_OF_PERICENTER":265.4147,"MEAN_ANOMALY":94.6571,"EPHEMERIS_TYPE":0,"CLASSIFICATION_TYPE":"U","NORAD_CAT_ID":55456,"ELEMENT_SET_NO":999,"REV_AT_EPOCH":15409,"BSTAR":7.7594628e-5,"MEAN_MOTION_DOT":8.45e-6,"MEAN_MOTION_DDOT":0},{"OBJECT_NAME":"STARLINK-5682","OBJECT_ID":"2023-015J","EPOCH":"2025-11-18T22:54:21.817152","MEAN_MOTION":15.02540336,"ECCENTRICITY":0.00014033,"INCLINATION":43.0041,"RA_OF_ASC_NODE":207.9451,"ARG_OF_PERICENTER":271.2399,"MEAN_ANOMALY":88.8283,"EPHEMERIS_TYPE":0,"CLASSIFICATION_TYPE":"U","NORAD_CAT_ID":55457,"ELEMENT_SET_NO":999,"REV_AT_EPOCH":15409,"BSTAR":-5.138484e-5,"MEAN_MOTION_DOT":-8.98e-6,"MEAN_MOTION_DDOT":0},{"OBJECT_NAME":"STARLINK-5020","OBJECT_ID":"2023-015K","EPOCH":"2025-11-18T16:12:16.362432","MEAN_MOTION":15.02531629,"ECCENTRICITY":0.00012173,"INCLINATION":43.0022,"RA_OF_ASC_NODE":209.286,"ARG_OF_PERICENTER":280.8294,"MEAN_ANOMALY":79.2411,"EPHEMERIS_TYPE":0,"CLASSIFICATION_TYPE":"U","NORAD_CAT_ID":55458,"ELEMENT_SET_NO":999,"REV_AT_EPOCH":15405,"BSTAR":5.3434685e-5,"MEAN_MOTION_DOT":5.18e-6,"MEAN_MOTION_DDOT":0},{"OBJECT_NAME":"STARLINK-5669","OBJECT_ID":"2023-015L","EPOCH":"2025-11-18T16:18:40.839840","MEAN_MOTION":15.02528253,"ECCENTRICITY":0.00018708,"INCLINATION":43.0041,"RA_OF_ASC_NODE":209.321,"ARG_OF_PERICENTER":272.4056,"MEAN_ANOMALY":87.6572,"EPHEMERIS_TYPE":0,"CLASSIFICATION_TYPE":"U","NORAD_CAT_ID":55459,"ELEMENT_SET_NO":999,"REV_AT_EPOCH":15405,"BSTAR":1.2846258e-5,"MEAN_MOTION_DOT":-3.0e-7,"MEAN_MOTION_DDOT":0},{"OBJECT_NAME":"STARLINK-5678","OBJECT_ID":"2023-015M","EPOCH":"2025-11-18T17:49:33.174912","MEAN_MOTION":15.02575585,"ECCENTRICITY":0.00019347,"INCLINATION":43.0014,"RA_OF_ASC_NODE":208.9356,"ARG_OF_PERICENTER":283.295,"MEAN_ANOMALY":76.7676,"EPHEMERIS_TYPE":0,"CLASSIFICATION_TYPE":"U","NORAD_CAT_ID":55460,"ELEMENT_SET_NO":999,"REV_AT_EPOCH":15406,"BSTAR":-0.0016377207,"MEAN_MOTION_DOT":-0.0002228,"MEAN_MOTION_DDOT":0},{"OBJECT_NAME":"STARLINK-5646","OBJECT_ID":"2023-015N","EPOCH":"2025-11-18T22:46:22.482912","MEAN_MOTION":15.02531748,"ECCENTRICITY":0.00016006,"INCLINATION":43.0032,"RA_OF_ASC_NODE":207.9037,"ARG_OF_PERICENTER":270.5119,"MEAN_ANOMALY":89.554,"EPHEMERIS_TYPE":0,"CLASSIFICATION_TYPE":"U","NORAD_CAT_ID":55461,"ELEMENT_SET_NO":999,"REV_AT_EPOCH":15409,"BSTAR":2.2537589e-5,"MEAN_MOTION_DOT":1.01e-6,"MEAN_MOTION_DDOT":0},{"OBJECT_NAME":"STARLINK-5673","OBJECT_ID":"2023-015P","EPOCH":"2025-11-18T17:33:35.668512","MEAN_MOTION":15.02553385,"ECCENTRICITY":0.00011692,"INCLINATION":43.0007,"RA_OF_ASC_NODE":208.8517,"ARG_OF_PERICENTER":267.2291,"MEAN_ANOMALY":92.8418,"EPHEMERIS_TYPE":0,"CLASSIFICATION_TYPE":"U","NORAD_CAT_ID":55462,"ELEMENT_SET_NO":999,"REV_AT_EPOCH":15406,"BSTAR":-0.00081571755,"MEAN_MOTION_DOT":-0.0001121,"MEAN_MOTION_DDOT":0},{"OBJECT_NAME":"STARLINK-5677","OBJECT_ID":"2023-015Q","EPOCH":"2025-11-18T17:41:36.441312","MEAN_MOTION":15.02535801,"ECCENTRICITY":8.364e-5,"INCLINATION":42.9991,"RA_OF_ASC_NODE":208.8935,"ARG_OF_PERICENTER":292.708,"MEAN_ANOMALY":67.3674,"EPHEMERIS_TYPE":0,"CLASSIFICATION_TYPE":"U","NORAD_CAT_ID":55463,"ELEMENT_SET_NO":999,"REV_AT_EPOCH":15406,"BSTAR":5.1755874e-5,"MEAN_MOTION_DOT":4.96e-6,"MEAN_MOTION_DDOT":0},{"OBJECT_NAME":"STARLINK-5676","OBJECT_ID":"2023-015R","EPOCH":"2025-11-18T23:46:58.774656","MEAN_MOTION":15.02450085,"ECCENTRICITY":6.375e-5,"INCLINATION":43.005,"RA_OF_ASC_NODE":207.3623,"ARG_OF_PERICENTER":140.9684,"MEAN_ANOMALY":219.1205,"EPHEMERIS_TYPE":0,"CLASSIFICATION_TYPE":"U","NORAD_CAT_ID":55464,"ELEMENT_SET_NO":999,"REV_AT_EPOCH":15410,"BSTAR":0.0015744954,"MEAN_MOTION_DOT":0.00021081,"MEAN_MOTION_DDOT":0},{"OBJECT_NAME":"STARLINK-5674","OBJECT_ID":"2023-015S","EPOCH":"2025-11-18T23:51:45.921600","MEAN_MOTION":15.02506956,"ECCENTRICITY":0.00014265,"INCLINATION":43.0047,"RA_OF_ASC_NODE":207.3844,"ARG_OF_PERICENTER":271.7405,"MEAN_ANOMALY":88.3274,"EPHEMERIS_TYPE":0,"CLASSIFICATION_TYPE":"U","NORAD_CAT_ID":55465,"ELEMENT_SET_NO":999,"REV_AT_EPOCH":15410,"BSTAR":-0.00023159254,"MEAN_MOTION_DOT":-3.328e-5,"MEAN_MOTION_DDOT":0}]
