STARLINK-5686           
1 55450U 23015B   25322.97218149 -.00001740  00000+0 -11376-3 0  9999
2 55450  43.0044 208.0804 0001388 270.2556  89.8127 15.02542829155032
STARLINK-5656           
1 55451U 23015C   25322.96551005 -.00005955  00000+0 -42638-3 0  9997
2 55451  43.0023 208.0308 0001014 257.9370 102.1359 15.02515091154093
STARLINK-5683           
1 55452U 23015D   25322.96108098  .00003861  00000+0  30087-3 0  9995
2 55452  43.0038 207.9948 0001288 244.3172 115.7538 15.02519479154094
STARLINK-5684           
1 55453U 23015E   25322.69182683 -.00008311  00000+0 -60033-3 0  9999
2 55453  43.0032 209.4157 0002263 295.4116  64.6492 15.02567298154056
STARLINK-5636           
1 55454U 23015F   25322.95108998 -.00000204  00000+0  35150-8 0  9995
2 55454  43.0048 207.9108 0001427 260.8885  99.1796 15.02533629154098
STARLINK-5680           
1 55455U 23015G   25322.96436864 -.00021061  00000+0 -15449-2 0  9991
2 55455  43.0032 208.0194 0001345 310.8188  49.2538 15.02627916154093
STARLINK-5058           
1 55456U 23015H   25322.95219959  .00000845  00000+0  77595-4 0  9992
2 55456  43.0055 207.9286 0001092 265.4147  94.6571 15.02532361154098
STARLINK-5682           
1 55457U 23015J   25322.95441918 -.00000898  00000+0 -51385-4 0  9994
2 55457  43.0041 207.9451 0001403 271.2399  88.8283 15.02540336154094
STARLINK-5020           
1 55458U 23015K   25322.67518938  .00000518  00000+0  53435-4 0  9996
2 55458  43.0022 209.2860 0001217 280.8294  79.2411 15.02531629154054
STARLINK-5669           
1 55459U 23015L   25322.67963935 -.00000030  00000+0  12846-4 0  9999
2 55459  43.0041 209.3210 0001870 272.4056  87.6572 15.02528253154054
STARLINK-5678           
1 55460U 23015M   25322.74274508 -.00022280  00000+0 -16377-2 0  9993
2 55460  43.0014 208.9356 0001934 283.2950  76.7676 15.02575585154061
STARLINK-5646           
1 55461U 23015N   25322.94887133  .00000101  00000+0  22538-4 0  9994
2 55461  43.0032 207.9037 0001600 270.5119  89.5540 15.02531748154091
STARLINK-5673           
1 55462U 23015P   25322.73166283 -.00011210  00000+0 -81572-3 0  9995
2 55462  43.0007 208.8517 0001169 267.2291  92.8418 15.02553385154060
STARLINK-5677           
1 55463U 23015Q   25322.73722733  .00000496  00000+0  51756-4 0  9998
2 55463  42.9991 208.8935 0000836 292.7080  67.3674 15.02535801154068
STARLINK-5676           
1 55464U 23015R   25322.99095804  .00021081  00000+0  15745-2 0  9998
2 55464  43.0050 207.3623 0000637 140.9684 219.1205 15.02450085154100
STARLINK-5674           
1 55465U 23015S   25322.99428150 -.00003328  00000+0 -23159-3 0  9998
2 55465  43.0047 207.3844 0001426 271.7405  88.3274 15.02506956154104
